IRIDIUM 166             
1 43570U 18061B   25131.77720543  .00000186  00000+0  59502-4 0  9991
2 43570  86.4005 224.4346 0002521  98.8368 261.3113 14.34217514355867
IRIDIUM 158             
1 43571U 18061C   25131.74549225  .00000165  00000+0  51797-4 0  9990
2 43571  86.4006 224.4577 0002204 101.0463 259.0981 14.34217848355829
IRIDIUM 165             
1 43572U 18061D   25132.18948447  .00000230  00000+0  75099-4 0  9993
2 43572  86.4008 224.3108 0002452  93.6911 266.4565 14.34218874355910
IRIDIUM 155             
1 43573U 18061E   25131.80257530  .00000092  00000+0  25825-4 0  9996
2 43573  86.4004 224.3617 0002354 103.4434 256.7025 14.34218223355824
IRIDIUM 154             
1 43574U 18061F   25131.78354541  .00000133  00000+0  40421-4 0  9999
2 43574  86.4007 224.4831 0002256  96.7259 263.4194 14.34216951355870
IRIDIUM 163             
1 43575U 18061G   25131.76451930  .00000104  00000+0  30071-4 0  9996
2 43575  86.4005 224.4192 0002103  97.6735 262.4700 14.34218259355841
IRIDIUM 156             
1 43576U 18061H   25131.73914984  .00000144  00000+0  44418-4 0  9991
2 43576  86.4005 224.4366 0002466 103.5740 256.5730 14.34217346355821
IRIDIUM 164             
1 43577U 18061J   25131.85965847 -.00000024  00000+0 -15739-4 0  9992
2 43577  86.4006 224.4201 0002345  92.7192 267.4272 14.34218164355895
